{"type": "FeatureCollection", "features": [ {"type": "Feature", "properties": {"norad_id": 33980, "name": "COSMOS 2251 DEB", "group": "cosmos-2251-debris", "lat": -41.321841603023024, "lon": 57.200915050485, "alt_km": 707.0839134042917, "timestamp": "2025-12-06T05:40:09.638657+00:00", "meta": {"OBJECT_NAME": "COSMOS 2251 DEB", "OBJECT_ID": "1993-036FP", "EPOCH": "2025-12-05T07:06:09.338688", "MEAN_MOTION": 14.58571016, "ECCENTRICITY": 0.00290911, "INCLINATION": 74.0221, "RA_OF_ASC_NODE": 73.5821, "ARG_OF_PERICENTER": 219.8656, "MEAN_ANOMALY": 201.234, "EPHEMERIS_TYPE": 0, "CLASSIFICATION_TYPE": "U", "NORAD_CAT_ID": 33980, "ELEMENT_SET_NO": 999, "REV_AT_EPOCH": 88686, "BSTAR": 0.0016037782, "MEAN_MOTION_DOT": 7.482e-05, "MEAN_MOTION_DDOT": 0}, "tle": {"line1": "1 33980U 93036FP  25339.29594142  .00007482  00000+0  16038-2 0  9992", "line2": "2 33980  74.0221  73.5821 0029091 219.8656 201.2340 14.58571016886861"}}, "geometry": {"type": "Point", "coordinates": [57.200915050485, -41.321841603023024]}}, {"type": "Feature", "properties": {"norad_id": 33982, "name": "COSMOS 2251 DEB", "group": "cosmos-2251-debris", "lat": 42.657841824460874, "lon": 177.06985178984368, "alt_km": 675.8983494570766, "timestamp": "2025-12-06T05:40:09.638667+00:00", "meta": {"OBJECT_NAME": "COSMOS 2251 DEB", "OBJECT_ID": "1993-036FR", "EPOCH": "2025-12-05T04:40:18.935040", "MEAN_MOTION": 14.60169599, "ECCENTRICITY": 0.00748521, "INCLINATION": 74.071, "RA_OF_ASC_NODE": 14.31, "ARG_OF_PERICENTER": 61.0091, "MEAN_ANOMALY": 0.4496, "EPHEMERIS_TYPE": 0, "CLASSIFICATION_TYPE": "U", "NORAD_CAT_ID": 33982, "ELEMENT_SET_NO": 999, "REV_AT_EPOCH": 89049, "BSTAR": 0.00065183704, "MEAN_MOTION_DOT": 3.236e-05, "MEAN_MOTION_DDOT": 0}, "tle": {"line1": "1 33982U 93036FR  25339.19466360  .00003236  00000+0  65184-3 0  9993", "line2": "2 33982  74.0710  14.3100 0074852  61.0091   0.4496 14.60169599890491"}}, "geometry": {"type": "Point", "coordinates": [177.06985178984368, 42.657841824460874]}}, {"type": "Feature", "properties": {"norad_id": 33983, "name": "COSMOS 2251 DEB", "group": "cosmos-2251-debris", "lat": -65.0218381864622, "lon": 121.3838074303726, "alt_km": 716.878280537313, "timestamp": "2025-12-06T05:40:09.638678+00:00", "meta": {"OBJECT_NAME": "COSMOS 2251 DEB", "OBJECT_ID": "1993-036FS", "EPOCH": "2025-12-04T23:07:06.756096", "MEAN_MOTION": 14.50620561, "ECCENTRICITY": 0.0021407, "INCLINATION": 74.0487, "RA_OF_ASC_NODE": 161.6507, "ARG_OF_PERICENTER": 265.4424, "MEAN_ANOMALY": 219.0051, "EPHEMERIS_TYPE": 0, "CLASSIFICATION_TYPE": "U", "NORAD_CAT_ID": 33983, "ELEMENT_SET_NO": 999, "REV_AT_EPOCH": 88516, "BSTAR": 0.0010407, "MEAN_MOTION_DOT": 4.07e-05, "MEAN_MOTION_DDOT": 0}, "tle": {"line1": "1 33983U 93036FS  25338.96327264  .00004070  00000+0  10407-2 0  9991", "line2": "2 33983  74.0487 161.6507 0021407 265.4424 219.0051 14.50620561885161"}}, "geometry": {"type": "Point", "coordinates": [121.3838074303726, -65.0218381864622]}}, {"type": "Feature", "properties": {"norad_id": 33984, "name": "COSMOS 2251 DEB", "group": "cosmos-2251-debris", "lat": 27.330735026598795, "lon": 8.183803755849619, "alt_km": 687.9136711716128, "timestamp": "2025-12-06T05:40:09.638688+00:00", "meta": {"OBJECT_NAME": "COSMOS 2251 DEB", "OBJECT_ID": "1993-036FT", "EPOCH": "2025-12-05T03:37:07.847328", "MEAN_MOTION": 14.66261467, "ECCENTRICITY": 0.00235633, "INCLINATION": 74.0092, "RA_OF_ASC_NODE": 1.7555, "ARG_OF_PERICENTER": 201.7643, "MEAN_ANOMALY": 219.7044, "EPHEMERIS_TYPE": 0, "CLASSIFICATION_TYPE": "U", "NORAD_CAT_ID": 33984, "ELEMENT_SET_NO": 999, "REV_AT_EPOCH": 88955, "BSTAR": 0.0017636722, "MEAN_MOTION_DOT": 9.744e-05, "MEAN_MOTION_DDOT": 0}, "tle": {"line1": "1 33984U 93036FT  25339.15078527  .00009744  00000+0  17637-2 0  9994", "line2": "2 33984  74.0092   1.7555 0023563 201.7643 219.7044 14.66261467889551"}}, "geometry": {"type": "Point", "coordinates": [8.183803755849619, 27.330735026598795]}}, {"type": "Feature", "properties": {"norad_id": 33986, "name": "COSMOS 2251 DEB", "group": "cosmos-2251-debris", "lat": -35.50969367403335, "lon": 146.53935100079386, "alt_km": 782.2872323458532, "timestamp": "2025-12-06T05:40:09.638698+00:00", "meta": {"OBJECT_NAME": "COSMOS 2251 DEB", "OBJECT_ID": "1993-036FV", "EPOCH": "2025-12-04T16:53:59.253792", "MEAN_MOTION": 14.43138264, "ECCENTRICITY": 0.00400594, "INCLINATION": 74.0363, "RA_OF_ASC_NODE": 317.5979, "ARG_OF_PERICENTER": 32.2769, "MEAN_ANOMALY": 148.5039, "EPHEMERIS_TYPE": 0, "CLASSIFICATION_TYPE": "U", "NORAD_CAT_ID": 33986, "ELEMENT_SET_NO": 999, "REV_AT_EPOCH": 87912, "BSTAR": 0.0015770448, "MEAN_MOTION_DOT": 5.325e-05, "MEAN_MOTION_DDOT": 0}, "tle": {"line1": "1 33986U 93036FV  25338.70415803  .00005325  00000+0  15770-2 0  9995", "line2": "2 33986  74.0363 317.5979 0040059  32.2769 148.5039 14.43138264879125"}}, "geometry": {"type": "Point", "coordinates": [146.53935100079386, -35.50969367403335]}}, {"type": "Feature", "properties": {"norad_id": 33990, "name": "COSMOS 2251 DEB", "group": "cosmos-2251-debris", "lat": -67.62334644936087, "lon": -108.0078821745537, "alt_km": 818.628769437616, "timestamp": "2025-12-06T05:40:09.638709+00:00", "meta": {"OBJECT_NAME": "COSMOS 2251 DEB", "OBJECT_ID": "1993-036FZ", "EPOCH": "2025-12-05T07:27:30.430368", "MEAN_MOTION": 13.4995653, "ECCENTRICITY": 0.04076216, "INCLINATION": 73.9283, "RA_OF_ASC_NODE": 297.921, "ARG_OF_PERICENTER": 319.5635, "MEAN_ANOMALY": 152.7475, "EPHEMERIS_TYPE": 0, "CLASSIFICATION_TYPE": "U", "NORAD_CAT_ID": 33990, "ELEMENT_SET_NO": 999, "REV_AT_EPOCH": 82629, "BSTAR": 0.0027826006, "MEAN_MOTION_DOT": 2.941e-05, "MEAN_MOTION_DDOT": 0}, "tle": {"line1": "1 33990U 93036FZ  25339.31076887  .00002941  00000+0  27826-2 0  9999", "line2": "2 33990  73.9283 297.9210 0407621 319.5635 152.7475 13.49956530826293"}}, "geometry": {"type": "Point", "coordinates": [-108.0078821745537, -67.62334644936087]}}, {"type": "Feature", "properties": {"norad_id": 33992, "name": "COSMOS 2251 DEB", "group": "cosmos-2251-debris", "lat": -68.16418527021804, "lon": -144.07804571753948, "alt_km": 709.9741850407509, "timestamp": "2025-12-06T05:40:09.638719+00:00", "meta": {"OBJECT_NAME": "COSMOS 2251 DEB", "OBJECT_ID": "1993-036GB", "EPOCH": "2025-12-05T04:17:58.154784", "MEAN_MOTION": 14.66121892, "ECCENTRICITY": 0.00516522, "INCLINATION": 74.0239, "RA_OF_ASC_NODE": 352.3192, "ARG_OF_PERICENTER": 112.556, "MEAN_ANOMALY": 324.9733, "EPHEMERIS_TYPE": 0, "CLASSIFICATION_TYPE": "U", "NORAD_CAT_ID": 33992, "ELEMENT_SET_NO": 999, "REV_AT_EPOCH": 89014, "BSTAR": 0.0013407468, "MEAN_MOTION_DOT": 7.491e-05, "MEAN_MOTION_DDOT": 0}, "tle": {"line1": "1 33992U 93036GB  25339.17914531  .00007491  00000+0  13407-2 0  9997", "line2": "2 33992  74.0239 352.3192 0051652 112.5560 324.9733 14.66121892890140"}}, "geometry": {"type": "Point", "coordinates": [-144.07804571753948, -68.16418527021804]}}, {"type": "Feature", "properties": {"norad_id": 33994, "name": "COSMOS 2251 DEB", "group": "cosmos-2251-debris", "lat": 29.854923464862278, "lon": -148.10253522403187, "alt_km": 742.6718865237108, "timestamp": "2025-12-06T05:40:09.638730+00:00", "meta": {"OBJECT_NAME": "COSMOS 2251 DEB", "OBJECT_ID": "1993-036GD", "EPOCH": "2025-12-05T01:45:57.547872", "MEAN_MOTION": 14.4120775, "ECCENTRICITY": 0.00233667, "INCLINATION": 74.0425, "RA_OF_ASC_NODE": 204.5956, "ARG_OF_PERICENTER": 340.3205, "MEAN_ANOMALY": 140.9977, "EPHEMERIS_TYPE": 0, "CLASSIFICATION_TYPE": "U", "NORAD_CAT_ID": 33994, "ELEMENT_SET_NO": 999, "REV_AT_EPOCH": 88309, "BSTAR": 0.00017756633, "MEAN_MOTION_DOT": 5.48e-06, "MEAN_MOTION_DDOT": 0}, "tle": {"line1": "1 33994U 93036GD  25339.07358273  .00000548  00000+0  17757-3 0  9992", "line2": "2 33994  74.0425 204.5956 0023366 340.3205 140.9977 14.41207750883096"}}, "geometry": {"type": "Point", "coordinates": [-148.10253522403187, 29.854923464862278]}}, {"type": "Feature", "properties": {"norad_id": 33995, "name": "COSMOS 2251 DEB", "group": "cosmos-2251-debris", "lat": -70.7413388624509, "lon": 6.134668679657542, "alt_km": 798.7102070797646, "timestamp": "2025-12-06T05:40:09.638740+00:00", "meta": {"OBJECT_NAME": "COSMOS 2251 DEB", "OBJECT_ID": "1993-036GE", "EPOCH": "2025-12-04T13:58:48.597024", "MEAN_MOTION": 14.34700139, "ECCENTRICITY": 0.0060799, "INCLINATION": 74.0599, "RA_OF_ASC_NODE": 134.2732, "ARG_OF_PERICENTER": 150.8805, "MEAN_ANOMALY": 209.5761, "EPHEMERIS_TYPE": 0, "CLASSIFICATION_TYPE": "U", "NORAD_CAT_ID": 33995, "ELEMENT_SET_NO": 999, "REV_AT_EPOCH": 87402, "BSTAR": 0.0021301, "MEAN_MOTION_DOT": 6.137e-05, "MEAN_MOTION_DDOT": 0}, "tle": {"line1": "1 33995U 93036GE  25338.58250691  .00006137  00000+0  21301-2 0  9992", "line2": "2 33995  74.0599 134.2732 0060799 150.8805 209.5761 14.34700139874028"}}, "geometry": {"type": "Point", "coordinates": [6.134668679657542, -70.7413388624509]}}, {"type": "Feature", "properties": {"norad_id": 33999, "name": "COSMOS 2251 DEB", "group": "cosmos-2251-debris", "lat": 0.9894777790670097, "lon": -115.96958022498606, "alt_km": 645.8056368848056, "timestamp": "2025-12-06T05:40:09.638750+00:00", "meta": {"OBJECT_NAME": "COSMOS 2251 DEB", "OBJECT_ID": "1993-036GJ", "EPOCH": "2025-12-05T03:45:45.408384", "MEAN_MOTION": 14.83100969, "ECCENTRICITY": 0.00445702, "INCLINATION": 73.9201, "RA_OF_ASC_NODE": 245.8959, "ARG_OF_PERICENTER": 143.7386, "MEAN_ANOMALY": 216.6827, "EPHEMERIS_TYPE": 0, "CLASSIFICATION_TYPE": "U", "NORAD_CAT_ID": 33999, "ELEMENT_SET_NO": 999, "REV_AT_EPOCH": 89138, "BSTAR": 0.0030975772, "MEAN_MOTION_DOT": 0.00025743, "MEAN_MOTION_DDOT": 0}, "tle": {"line1": "1 33999U 93036GJ  25339.15677556  .00025743  00000+0  30976-2 0  9995", "line2": "2 33999  73.9201 245.8959 0044570 143.7386 216.6827 14.83100969891383"}}, "geometry": {"type": "Point", "coordinates": [-115.96958022498606, 0.9894777790670097]}}]}